{
    "links": {
        "self": "http://www.neowsapp.com/rest/v1/neo/3545512?api_key=iIulBulltgU6a56xZRHN4H3l9WmuAYTsLGpBGhQ2"
    },
    "id": "3545512",
    "neo_reference_id": "3545512",
    "name": "(2010 RA12)",
    "designation": "2010 RA12",
    "nasa_jpl_url": "http://ssd.jpl.nasa.gov/sbdb.cgi?sstr=3545512",
    "absolute_magnitude_h": 26.9,
    "estimated_diameter": {
        "kilometers": {
            "estimated_diameter_min": 0.0110803882,
            "estimated_diameter_max": 0.0247765013
        },
        "meters": {
            "estimated_diameter_min": 11.0803882126,
            "estimated_diameter_max": 24.7765012606
        },
        "miles": {
            "estimated_diameter_min": 0.0068850319,
            "estimated_diameter_max": 0.0153953994
        },
        "feet": {
            "estimated_diameter_min": 36.3529808636,
            "estimated_diameter_max": 81.2877363957
        }
    },
    "is_potentially_hazardous_asteroid": false,
    "close_approach_data": [
        {
            "close_approach_date": "1974-07-07",
            "close_approach_date_full": "1974-Jul-07 03:32",
            "epoch_date_close_approach": 142399920000,
            "relative_velocity": {
                "kilometers_per_second": "5.1140169302",
                "kilometers_per_hour": "18410.4609488216",
                "miles_per_hour": "11439.5444712275"
            },
            "miss_distance": {
                "astronomical": "0.085515262",
                "lunar": "33.265436918",
                "kilometers": "12792901.04769194",
                "miles": "7949140.104511172"
            },
            "orbiting_body": "Mars"
        },
        {
            "close_approach_date": "2007-08-04",
            "close_approach_date_full": "2007-Aug-04 01:36",
            "epoch_date_close_approach": 1186191360000,
            "relative_velocity": {
                "kilometers_per_second": "16.6094241524",
                "kilometers_per_hour": "59793.9269486162",
                "miles_per_hour": "37153.6208864888"
            },
            "miss_distance": {
                "astronomical": "0.4302348526",
                "lunar": "167.3613576614",
                "kilometers": "64362217.548723962",
                "miles": "39992827.4927241956"
            },
            "orbiting_body": "Earth"
        },
        {
            "close_approach_date": "2010-09-02",
            "close_approach_date_full": "2010-Sep-02 16:41",
            "epoch_date_close_approach": 1283445660000,
            "relative_velocity": {
                "kilometers_per_second": "7.8125838576",
                "kilometers_per_hour": "28125.3018874573",
                "miles_per_hour": "17475.9688311259"
            },
            "miss_distance": {
                "astronomical": "0.029622789",
                "lunar": "11.523264921",
                "kilometers": "4431506.13785943",
                "miles": "2753610.227462934"
            },
            "orbiting_body": "Earth"
        },
        {
            "close_approach_date": "2013-10-14",
            "close_approach_date_full": "2013-Oct-14 08:07",
            "epoch_date_close_approach": 1381738020000,
            "relative_velocity": {
                "kilometers_per_second": "13.1292742986",
                "kilometers_per_hour": "47265.3874748596",
                "miles_per_hour": "29368.8736784759"
            },
            "miss_distance": {
                "astronomical": "0.3720641896",
                "lunar": "144.7329697544",
                "kilometers": "55660010.267436152",
                "miles": "34585526.6280048176"
            },
            "orbiting_body": "Earth"
        },
        {
            "close_approach_date": "2115-08-03",
            "close_approach_date_full": "2115-Aug-03 19:51",
            "epoch_date_close_approach": 4594305060000,
            "relative_velocity": {
                "kilometers_per_second": "5.7111856393",
                "kilometers_per_hour": "20560.2683015823",
                "miles_per_hour": "12775.3511566138"
            },
            "miss_distance": {
                "astronomical": "0.0904401735",
                "lunar": "35.1812274915",
                "kilometers": "13529657.318030445",
                "miles": "8406939.222472341"
            },
            "orbiting_body": "Mars"
        }
    ],
    "orbital_data": {
        "orbit_id": "6",
        "orbit_determination_date": "2017-04-06 08:56:53",
        "first_observation_date": "2010-09-03",
        "last_observation_date": "2010-09-04",
        "data_arc_in_days": 1,
        "observations_used": 18,
        "orbit_uncertainty": "8",
        "minimum_orbit_intersection": ".0267318",
        "jupiter_tisserand_invariant": "4.872",
        "epoch_osculation": "2455443.5",
        "eccentricity": ".2306191470312141",
        "semi_major_axis": "1.329521449596901",
        "inclination": "13.01804294253264",
        "ascending_node_longitude": "339.6419834191045",
        "orbital_period": "559.9399438030547",
        "perihelion_distance": "1.02290834693116",
        "perihelion_argument": "21.56300323455226",
        "aphelion_distance": "1.636134552262641",
        "perihelion_time": "2455461.738401714382",
        "mean_anomaly": "348.2740556557135",
        "mean_motion": ".6429260923143237",
        "equinox": "J2000",
        "orbit_class": {
            "orbit_class_type": "AMO",
            "orbit_class_description": "Near-Earth asteroid orbits similar to that of 1221 Amor",
            "orbit_class_range": "1.017 AU < q (perihelion) < 1.3 AU"
        }
    },
    "is_sentry_object": false
}